COMMENT,ORIGINATOR,NORAD_CAT_ID,OBJECT_NAME,OBJECT_TYPE,CLASSIFICATION_TYPE,INTLDES,EPOCH,EPOCH_MICROSECONDS,MEAN_MOTION,ECCENTRICITY,INCLINATION,RA_OF_ASC_NODE,ARG_OF_PERICENTER,MEAN_ANOMALY,EPHEMERIS_TYPE,ELEMENT_SET_NO,REV_AT_EPOCH,BSTAR,MEAN_MOTION_DOT,MEAN_MOTION_DDOT,FILE,TLE_LINE0,TLE_LINE1,TLE_LINE2,OBJECT_ID,OBJECT_NUMBER,SEMIMAJOR_AXIS,PERIOD,APOGEE,PERIGEE,DECAYED
"GENERATED VIA SPACETRACK.ORG API","18 SPCS","55099","SPACEBEE-156","PAYLOAD","U","23001CU","2023-11-05 15:42:11","462976","15.26753474","0.0012333","97.458","8.9788","222.2662","137.7627","0","999","4663","0.001612","0.00042615","0","4072675","0 SPACEBEE-156","1 55099U 23001CU  23309.65429934  .00042615  00000-0  16120-2 0  9993","2 55099  97.4580   8.9788 0012333 222.2662 137.7627 15.26753474 46633","2023-001CU","55099","6863.662","94.318","493.992","477.062","0"
"GENERATED VIA SPACETRACK.ORG API","18 SPCS","55099","SPACEBEE-156","PAYLOAD","U","23001CU","2023-11-06 02:42:49","142592","15.26845654","0.0012285","97.4579","9.4373","220.505","139.5275","0","999","4670","0.0032203","0.00085932","0","4073502","0 SPACEBEE-156","1 55099U 23001CU  23310.11306878  .00085932  00000-0  32203-2 0  9996","2 55099  97.4579   9.4373 0012285 220.5050 139.5275 15.26845654 46704","2023-001CU","55099","6863.386","94.312","493.683","476.819","0"
"GENERATED VIA SPACETRACK.ORG API","18 SPCS","55099","SPACEBEE-156","PAYLOAD","U","23001CU","2023-11-06 02:42:49","142592","15.26845654","0.0012285","97.4579","9.4373","220.505","139.5275","0","999","4670","0.0032203","0.00085932","0","4074285","0 SPACEBEE-156","1 55099U 23001CU  23310.11306878  .00085932  00000-0  32203-2 0  9996","2 55099  97.4579   9.4373 0012285 220.5050 139.5275 15.26845654 46704","2023-001CU","55099","6863.386","94.312","493.683","476.819","0"
"GENERATED VIA SPACETRACK.ORG API","18 SPCS","55099","SPACEBEE-156","PAYLOAD","U","23001CU","2023-11-06 15:17:47","414976","15.26902948","0.0012275","97.4582","9.961","218.3879","141.6487","0","999","4678","0.0023582","0.00062824","0","4074845","0 SPACEBEE-156","1 55099U 23001CU  23310.63735434  .00062824  00000-0  23582-2 0  9992","2 55099  97.4582   9.9610 0012275 218.3879 141.6487 15.26902948 46787","2023-001CU","55099","6863.214","94.309","493.504","476.655","0"
"GENERATED VIA SPACETRACK.ORG API","18 SPCS","55099","SPACEBEE-156","PAYLOAD","U","23001CU","2023-11-06 21:35:15","875520","15.26923878","0.0012308","97.4581","10.2226","217.3612","142.6772","0","999","4682","0.0017021","0.00045249","0","4074934","0 SPACEBEE-156","1 55099U 23001CU  23310.89948930  .00045249  00000-0  17021-2 0  9990","2 55099  97.4581  10.2226 0012308 217.3612 142.6772 15.26923878 46823","2023-001CU","55099","6863.151","94.307","493.464","476.569","0"
"GENERATED VIA SPACETRACK.ORG API","18 SPCS","55099","SPACEBEE-156","PAYLOAD","U","23001CU","2023-11-07 03:52:44","1696","15.26951473","0.0012364","97.4582","10.4847","216.2068","143.8335","0","999","4686","0.0017853","0.00047519","0","4075698","0 SPACEBEE-156","1 55099U 23001CU  23311.16162039  .00047519  00000-0  17853-2 0  9994","2 55099  97.4582  10.4847 0012364 216.2068 143.8335 15.26951473 46864","2023-001CU","55099","6863.069","94.306","493.419","476.448","0"
"GENERATED VIA SPACETRACK.ORG API","18 SPCS","55099","SPACEBEE-156","PAYLOAD","U","23001CU","2023-11-07 10:10:11","715744","15.2697306","0.0012341","97.4581","10.7472","215.3881","144.654","0","999","4690","0.0018115","0.00048253","0","4076432","0 SPACEBEE-156","1 55099U 23001CU  23311.42374671  .00048253  00000-0  18115-2 0  9998","2 55099  97.4581  10.7472 0012341 215.3881 144.6540 15.26973060 46906","2023-001CU","55099","6863.004","94.304","493.339","476.399","0"
"GENERATED VIA SPACETRACK.ORG API","18 SPCS","55099","SPACEBEE-156","PAYLOAD","U","23001CU","2023-11-07 16:27:39","211200","15.26987939","0.0012378","97.458","11.0089","214.507","145.5366","0","999","4694","0.0012377","0.00032894","0","4077003","0 SPACEBEE-156","1 55099U 23001CU  23311.68587050  .00032894  00000-0  12377-2 0  9991","2 55099  97.4580  11.0089 0012378 214.5070 145.5366 15.26987939 46944","2023-001CU","55099","6862.960","94.303","493.319","476.330","0"
"GENERATED VIA SPACETRACK.ORG API","18 SPCS","55099","SPACEBEE-156","PAYLOAD","U","23001CU","2023-11-08 09:45:38","130048","15.27046357","0.0012442","97.4579","11.7292","212.0194","148.029","0","999","4705","0.0014986","0.00039952","0","4078279","0 SPACEBEE-156","1 55099U 23001CU  23312.40669132  .00039952  00000-0  14986-2 0  9994","2 55099  97.4579  11.7292 0012442 212.0194 148.0290 15.27046357 47055","2023-001CU","55099","6862.784","94.300","493.188","476.111","0"
"GENERATED VIA SPACETRACK.ORG API","18 SPCS","55099","SPACEBEE-156","PAYLOAD","U","23001CU","2023-11-08 09:45:38","130048","15.27046357","0.0012442","97.4579","11.7292","212.0194","148.029","0","999","4705","0.0014986","0.00039952","0","4078352","0 SPACEBEE-156","1 55099U 23001CU  23312.40669132  .00039952  00000-0  14986-2 0  9994","2 55099  97.4579  11.7292 0012442 212.0194 148.0290 15.27046357 47055","2023-001CU","55099","6862.784","94.300","493.188","476.111","0"
"GENERATED VIA SPACETRACK.ORG API","18 SPCS","55099","SPACEBEE-156","PAYLOAD","U","23001CU","2023-11-08 20:46:09","43680","15.27079748","0.0012475","97.458","12.1874","210.5239","149.5275","0","999","4712","0.001351","0.00036028","0","4078917","0 SPACEBEE-156","1 55099U 23001CU  23312.86538245  .00036028  00000-0  13510-2 0  9997","2 55099  97.4580  12.1874 0012475 210.5239 149.5275 15.27079748 47124","2023-001CU","55099","6862.684","94.298","493.111","475.988","0"
"GENERATED VIA SPACETRACK.ORG API","18 SPCS","55099","SPACEBEE-156","PAYLOAD","U","23001CU","2023-11-09 09:21:00","443808","15.27120434","0.0012501","97.4581","12.7113","208.7117","151.3435","0","999","4720","0.0014454","0.00038611","0","4080359","0 SPACEBEE-156","1 55099U 23001CU  23313.38958847  .00038611  00000-0  14454-2 0  9997","2 55099  97.4581  12.7113 0012501 208.7117 151.3435 15.27120434 47208","2023-001CU","55099","6862.563","94.295","493.006","475.849","0"
"GENERATED VIA SPACETRACK.ORG API","18 SPCS","55099","SPACEBEE-156","PAYLOAD","U","23001CU","2023-11-09 17:12:47","16576","15.27141578","0.0012504","97.4581","13.0387","207.4954","152.5624","0","999","4725","0.0012934","0.00034547","0","4080490","0 SPACEBEE-156","1 55099U 23001CU  23313.71721084  .00034547  00000-0  12934-2 0  9990","2 55099  97.4581  13.0387 0012504 207.4954 152.5624 15.27141578 47253","2023-001CU","55099","6862.499","94.294","492.945","475.783","0"
"GENERATED VIA SPACETRACK.ORG API","18 SPCS","55099","SPACEBEE-156","PAYLOAD","U","23001CU","2023-11-09 17:12:47","16576","15.27141578","0.0012504","97.4581","13.0387","207.4954","152.5624","0","999","4725","0.0012934","0.00034547","0","4080838","0 SPACEBEE-156","1 55099U 23001CU  23313.71721084  .00034547  00000-0  12934-2 0  9990","2 55099  97.4581  13.0387 0012504 207.4954 152.5624 15.27141578 47253","2023-001CU","55099","6862.499","94.294","492.945","475.783","0"
"GENERATED VIA SPACETRACK.ORG API","18 SPCS","55099","SPACEBEE-156","PAYLOAD","U","23001CU","2023-11-10 02:38:54","357504","15.27168518","0.0012498","97.4581","13.4316","206.0468","154.0143","0","999","4731","0.0012912","0.00034516","0","4082124","0 SPACEBEE-156","1 55099U 23001CU  23314.11035136  .00034516  00000-0  12912-2 0  9993","2 55099  97.4581  13.4316 0012498 206.0468 154.0143 15.27168518 47319","2023-001CU","55099","6862.418","94.292","492.860","475.707","0"
"GENERATED VIA SPACETRACK.ORG API","18 SPCS","55099","SPACEBEE-156","PAYLOAD","U","23001CU","2023-11-10 16:48:04","254336","15.27208242","0.001246","97.4585","14.0213","204.0017","156.0642","0","999","4740","0.0012409","0.00033202","0","4082691","0 SPACEBEE-156","1 55099U 23001CU  23314.70004924  .00033202  00000-0  12409-2 0  9991","2 55099  97.4585  14.0213 0012460 204.0017 156.0642 15.27208242 47408","2023-001CU","55099","6862.299","94.290","492.715","475.614","0"
"GENERATED VIA SPACETRACK.ORG API","18 SPCS","55099","SPACEBEE-156","PAYLOAD","U","23001CU","2023-11-11 03:48:31","134816","15.27233268","0.0012475","97.4582","14.4795","202.2923","157.7775","0","999","4747","0.0011033","0.0002952","0","4083261","0 SPACEBEE-156","1 55099U 23001CU  23315.15869369  .00029520  00000-0  11033-2 0  9993","2 55099  97.4582  14.4795 0012475 202.2923 157.7775 15.27233268 47474","2023-001CU","55099","6862.225","94.288","492.650","475.529","0"
"GENERATED VIA SPACETRACK.ORG API","18 SPCS","55099","SPACEBEE-156","PAYLOAD","U","23001CU","2023-11-11 03:48:31","134816","15.27233268","0.0012475","97.4582","14.4795","202.2923","157.7775","0","999","4747","0.0011033","0.0002952","0","4083845","0 SPACEBEE-156","1 55099U 23001CU  23315.15869369  .00029520  00000-0  11033-2 0  9993","2 55099  97.4582  14.4795 0012475 202.2923 157.7775 15.27233268 47474","2023-001CU","55099","6862.225","94.288","492.650","475.529","0"
"GENERATED VIA SPACETRACK.ORG API","18 SPCS","55099","SPACEBEE-156","PAYLOAD","U","23001CU","2023-11-11 17:57:38","940768","15.27266296","0.0012548","97.458","15.0687","200.0956","159.9791","0","999","4756","0.0010055","0.00026915","0","4084458","0 SPACEBEE-156","1 55099U 23001CU  23315.74836737  .00026915  00000-0  10055-2 0  9999","2 55099  97.4580  15.0687 0012548 200.0956 159.9791 15.27266296 47561","2023-001CU","55099","6862.126","94.286","492.601","475.380","0"
"GENERATED VIA SPACETRACK.ORG API","18 SPCS","55099","SPACEBEE-156","PAYLOAD","U","23001CU","2023-11-12 09:41:06","465984","15.27298065","0.0012571","97.4576","15.7237","197.9374","162.1423","0","999","4766","0.0009487","0.0002541","0","4085539","0 SPACEBEE-156","1 55099U 23001CU  23316.40354706  .00025410  00000-0  94870-3 0  9991","2 55099  97.4576  15.7237 0012571 197.9374 162.1423 15.27298065 47666","2023-001CU","55099","6862.030","94.284","492.522","475.269","0"
